#dP2020  4 25  0  0  0.00000000      96 __u+U ITR00 FIT  IAC
## 2102 518400.00000000   900.00000000 58964 0.0000000000000
+  117   C06C07C08C09C10C11C12C13C14C16C19C20C21C22C23C24C25
+        C26C27C28C29C30C32C33C34C35C36C37C38C39C40C43C44C45
+        C46E01E02E03E04E05E07E08E09E11E12E13E14E15E18E19E21
+        E24E25E26E27E30E31E33E36G01G02G03G04G05G06G07G08G09
+        G10G11G12G13G14G15G16G17G18G19G20G21G22G23G24G25G26
+        G27G28G29G30G31G32J01J02J03R01R02R03R04R05R07R08R09
+        R11R12R13R14R15R16R17R18R19R20R21R22R23R24R26  0  0
++         9  9  9  7  7 11  9  9  7  8  7  7  8  7  8  7  8
++         8  6  6  6  6  7  7  8  8  7  7 13 12 11  9  9  8
++        10  5  7  7  6  5  7  6  5  5  7  5  6  6  8  7  6
++         5  6  7  7  6  6  7  6  4  5  6  5  6  5  6  5  6
++         6  6  5  5  6  6  5  6  7  6  6  7  6  7  5  6  6
++         5  6  6  6  6  6  9  9  8  7  7  6  7  7  5  6  7
++         6  6  5  7  6  6  7  7  6  8  5  5  6  7  5  0  0
%c M  cc GPS ccc cccc cccc cccc cccc ccccc ccccc ccccc ccccc
%c cc cc ccc ccc cccc cccc cccc cccc ccccc ccccc ccccc ccccc
%f  0.0000000  0.000000000  0.00000000000  0.000000000000000
%f  0.0000000  0.000000000  0.00000000000  0.000000000000000
%i    0    0    0    0      0      0      0      0         0
%i    0    0    0    0      0      0      0      0         0
/* INFORMATION & ANALYSIS CENTER (IAC)      ULTRA-RAPID DATA
/* S/V CLOCKS ARE ALIGNED TO GNSS TIME                      
/* G:C1WC2W R:C1PC2P E:C1XC5X C:C2IC6I J:C1CC2S             
/* PCV:IGS14_2101 OL/AL:FES2004  NONE     YN ORB:CoN CLK:CoN
*  2020 04 25 22  0  0.00000000
PC06 -20253.187425  21940.988741  29996.923747    424.904606
PC07 -19940.948581  37334.882010   3224.607281    834.676509
PC08  -5941.255401  26447.145188 -32100.040195   -219.878545
PC09  -2412.356952  24557.892480  34445.399074    497.707957
PC10  -9019.283497  40052.318977 -10365.958025   -893.361245
PC11  -3713.323556 -16253.194610  22442.988337   -325.937235
PC12  16695.497388  -9464.475087  20283.598425    358.135017
PC13   5574.208018  35081.618944 -22432.477394    401.929124
PC14   5655.926039 -22096.322546 -16003.072502    336.937747
PC16 -16516.059590  22531.474721  31593.634570   -666.217155
PC19   3283.518730  17910.355957  21184.184656    393.458179
PC20 -13074.812309  22915.953062   9165.660895   -896.869964
PC21  22256.322169 -14342.012325   8802.406182   -327.142354
PC22  18061.514984   2444.601345  21134.307178   -824.076614
PC23 -16860.950028 -13028.481399  18018.288012   -897.315069
PC24   3909.046233 -23735.500501 -14171.826123   -844.084345
PC25 -10147.627210 -25815.978498   3128.157115   -595.596625
PC26  14076.381087  -8586.108215 -22523.282985    657.569984
PC27 -23841.036612   3613.218666 -14042.619484    319.246182
PC28 -26175.199205  -9205.101489   2997.456705    310.284426
PC29  13807.928535  16069.298299 -18171.976611    219.949452
PC30  -7363.811545  14440.063001 -22715.321923    307.583208
PC32 -22143.092364  14577.717004  -8711.700167   -908.322501
PC33  -3339.214272 -17917.191682 -21112.636189   -856.778334
PC34   6971.373216 -14597.359324  22735.262947   -664.525888
PC35  26441.570125   8418.241841  -3146.083671   -874.262506
PC36   9392.950130  26120.338841  -2887.459231   -824.214303
PC37 -14541.819766   7505.034327  22618.801122   -843.099558
PC38  -3339.264063  30926.511704 -28419.802454 999999.999999
PC39 -13035.862335  23861.296355  32222.240554     14.623754
PC40 -15391.855728  38178.385398  -9527.387696 999999.999999
PC43 -13396.892909 -16282.660644  18261.887163   -166.254293
PC44  23878.472595  -4294.859228  13818.379070   -190.096550
PC45  16809.339536  13024.221630 -18061.233660    117.371832
PC46  -3460.058190  23944.244355  13889.485578    867.005250
PE01   8409.573696  22175.518493 -17714.640585   -843.553521
PE02  -8448.173685 -22123.932098  17759.042747    128.991854
PE03 -13621.815748 -12392.421139 -23170.983542   -291.890094
PE04  27114.388214  -1432.845933  11796.331773   -512.894464
PE05   8043.031386 -19129.420836 -21099.023110   -385.526977
PE07 -24831.797654  14651.045919   6738.691719   -373.202345
PE08 -27152.583286   1855.688940 -11647.703874   6187.146602
PE09  24697.045690 -14799.321184  -6825.151351   6081.256757
PE11  15642.207200  -7709.617264  23918.223390   2474.431940
PE12  25185.307566   9778.851196  12127.270186   5836.147563
PE13 -15735.808979   7526.503426 -23905.863406    400.353320
PE14 -13411.298216 -12508.994905  15736.456676   -991.101485
PE15 -25162.027256  -9534.514670 -12314.094626    869.209140
PE18   9277.168209  19431.163777 -23795.874896  -1089.796464
PE19  11465.870554  13440.376797  23760.087230  -1145.256831
PE21  -4163.632697  29299.481911   -645.816556   -595.514943
PE24  14746.500684 -19119.971379 -17150.870566   5488.268006
PE25   4249.507059 -29289.638447    516.007140   -509.626982
PE26   3089.548818  20448.893682 -21173.361960   3260.642816
PE27 -14537.580171  19354.212220  17032.112470    233.186981
PE30 -16301.581108  -2347.518215  24581.692732   3956.999459
PE31  16321.191395   1907.269938 -24618.180469   -472.388975
PE33  19828.597120  21002.645509  -6499.412818   -467.997742
PE36  -2907.097589 -20164.014764  21475.717375    568.229267
PG01  19458.988017  10909.058971  14453.356910   -366.903872
PG02 -12807.279333 -22608.590048   6285.302900   -445.612882
PG03  16255.808092   -684.727905  20915.072002   -156.516874
PG04  26373.268039    645.837127   3229.853204    -81.082158
PG05  -5437.378929 -19235.726956 -17524.293530    -11.518056
PG06  -4088.697823 -22118.258116  14142.936631 999999.999999
PG07  13584.958271  -7075.356326 -21420.575531   -266.955691
PG08  21621.240197   7189.942422 -13842.988576    -31.877482
PG09  24236.660683  -7983.374050  -7454.970693   -205.119713
PG10 -11364.248246  23852.608517   -660.326254   -321.750911
PG11  23312.173109  12364.782343     19.790895   -294.868257
PG12 -15410.424364  -1700.011587  21305.176711    125.078084
PG13 -14523.410861 -13011.522024 -18192.618323      5.053735
PG14   -826.974269  15379.511069  21978.235377    -17.182043
PG15 -22679.568511  -5604.947419 -13290.579933   -235.480220
PG16   4220.584061  18227.837107 -18884.282750   -150.856778
PG17  11566.416215 -13716.579981  19989.677775    254.732484
PG18 -14840.203626   4740.261693 -21527.630592    169.079680
PG19   3181.725084 -14478.368622  21739.513832   -167.153814
PG20 -14969.837774  18196.199060 -12123.411122    527.777296
PG21 -12365.573314   8563.861711 -21102.752529     -9.440351
PG22  13551.394467   9053.949755  21204.965605   -784.014789
PG23  25916.168195  -5595.701431  -3484.515750   -119.212524
PG24 -20723.065837 -11318.096174  12316.032172    -12.211376
PG25 -17487.324664   9812.970981  17037.699949     -0.640461
PG26  -2684.922970  24476.751462  -9694.692950    194.561170
PG27  11947.374466  12612.269456 -20325.244026   -276.889309
PG28  12229.605272 -23633.327842   1777.386986    722.511980
PG29 -25759.682630   4045.306179  -5148.133877    -89.734933
PG30   5323.079444 -17448.075371 -19197.937922   -206.502313
PG31   4329.212056  22609.388075  12796.810790    -38.386624
PG32 -10001.058656  14902.324393  19611.796192    267.556991
PJ01 -28243.449345  31365.043109   5237.608981   -316.198052
PJ02 -26379.092749  26419.839322  24320.795000     -2.560027
PJ03 -31965.412213  16122.747981 -17641.010247     -2.337177
PR01   1166.621266  12486.978239  22221.654918     60.576075
PR02  18152.535578  -2446.605963  17824.315875    423.619984
PR03  21382.323369 -13748.239104   2438.147710     13.935612
PR04  12460.880495 -17073.425521 -14247.994490     46.895795
PR05  -3424.628458 -10737.967948 -22868.188428     49.321838
PR07 -21211.059198  14022.961896  -1709.180615    -35.853420
PR08 -12370.278471  17132.761561  14335.892084    -51.848511
PR09 -11441.571305  -4011.661144  22444.869127    129.250730
PR11  -1334.778182  24328.657938   7640.909267    -21.432364
PR12   6543.122226  22894.744507  -9096.764035    125.615421
PR13  11128.706829   8147.516963 -21478.662705    -37.882074
PR14   9049.814969 -11276.449917 -21003.824558     50.552411
PR15   1798.738562 -23992.331653  -8461.703309    106.391290
PR16  -7256.003340 -22583.585492   9517.162697     -3.049373
PR17  17893.753402   -819.896456  18154.496566    320.093916
PR18   2722.602596 -10261.401209  23204.287919     33.265757
PR19 -13308.727268 -14616.541623  16118.451492    -90.407929
PR20 -23164.507993 -10341.078476  -2395.100752   -410.076214
PR21 -17270.565073   1282.095260 -18736.705908   -120.404985
PR22    143.133330  11379.982922 -22838.434030      1.731474
PR23  18550.143490  13988.827514 -10547.853193    301.530899
PR24  23337.295543   9805.189401   3143.753378     -4.250091
PR26 -22537.610255 -11752.317420   2289.052799   -397.965474
EOF
